MALLIGYONG-1            
1 58400U 23179A   24206.21305139  .00008253  00000+0  36862-3 0  9992
2 58400  97.3985  92.4341 0003566  81.5728 278.5912 15.21597606 37358
